{
    "links": {
        "self": "http://www.neowsapp.com/rest/v1/neo/3825003?api_key=iIulBulltgU6a56xZRHN4H3l9WmuAYTsLGpBGhQ2"
    },
    "id": "3825003",
    "neo_reference_id": "3825003",
    "name": "(2018 KO1)",
    "designation": "2018 KO1",
    "nasa_jpl_url": "http://ssd.jpl.nasa.gov/sbdb.cgi?sstr=3825003",
    "absolute_magnitude_h": 25.0,
    "estimated_diameter": {
        "kilometers": {
            "estimated_diameter_min": 0.02658,
            "estimated_diameter_max": 0.0594346868
        },
        "meters": {
            "estimated_diameter_min": 26.58,
            "estimated_diameter_max": 59.4346868419
        },
        "miles": {
            "estimated_diameter_min": 0.0165160412,
            "estimated_diameter_max": 0.0369309908
        },
        "feet": {
            "estimated_diameter_min": 87.2047272,
            "estimated_diameter_max": 194.9956979785
        }
    },
    "is_potentially_hazardous_asteroid": false,
    "close_approach_data": [
        {
            "close_approach_date": "2018-05-13",
            "close_approach_date_full": "2018-May-13 23:05",
            "epoch_date_close_approach": 1526252700000,
            "relative_velocity": {
                "kilometers_per_second": "12.7832808596",
                "kilometers_per_hour": "46019.8110946349",
                "miles_per_hour": "28594.9209548858"
            },
            "miss_distance": {
                "astronomical": "0.0100108144",
                "lunar": "3.8942068016",
                "kilometers": "1497596.511205328",
                "miles": "930563.3212684064"
            },
            "orbiting_body": "Earth"
        },
        {
            "close_approach_date": "2076-09-26",
            "close_approach_date_full": "2076-Sep-26 09:33",
            "epoch_date_close_approach": 3368338380000,
            "relative_velocity": {
                "kilometers_per_second": "13.046656951",
                "kilometers_per_hour": "46967.9650235226",
                "miles_per_hour": "29184.0669336438"
            },
            "miss_distance": {
                "astronomical": "0.0500192406",
                "lunar": "19.4574845934",
                "kilometers": "7482771.852777522",
                "miles": "4649578.8254809236"
            },
            "orbiting_body": "Mars"
        }
    ],
    "orbital_data": {
        "orbit_id": "4",
        "orbit_determination_date": "2018-05-25 06:23:15",
        "first_observation_date": "2018-05-19",
        "last_observation_date": "2018-05-25",
        "data_arc_in_days": 6,
        "observations_used": 38,
        "orbit_uncertainty": "8",
        "minimum_orbit_intersection": ".00887923",
        "jupiter_tisserand_invariant": "4.627",
        "epoch_osculation": "2458260.5",
        "eccentricity": ".4642767497875493",
        "semi_major_axis": "1.403557535652579",
        "inclination": ".6249729755210951",
        "ascending_node_longitude": "359.2431217464002",
        "orbital_period": "607.3566028272598",
        "perihelion_distance": ".7519184048599771",
        "perihelion_argument": "154.4431101184697",
        "aphelion_distance": "2.05519666644518",
        "perihelion_time": "2458198.951925939711",
        "mean_anomaly": "36.48154405263931",
        "mean_motion": ".5927325039757388",
        "equinox": "J2000",
        "orbit_class": {
            "orbit_class_type": "APO",
            "orbit_class_description": "Near-Earth asteroid orbits which cross the Earth’s orbit similar to that of 1862 Apollo",
            "orbit_class_range": "a (semi-major axis) > 1.0 AU; q (perihelion) < 1.017 AU"
        }
    },
    "is_sentry_object": false
}